[{"OBJECT_NAME":"STARLINK-3943","OBJECT_ID":"2022-051AA","EPOCH":"2026-03-09T09:16:12.005184","MEAN_MOTION":15.08833945,"ECCENTRICITY":0.00014326,"INCLINATION":53.217,"RA_OF_ASC_NODE":130.4823,"ARG_OF_PERICENTER":103.149,"MEAN_ANOMALY":256.9662,"EPHEMERIS_TYPE":0,"CLASSIFICATION_TYPE":"U","NORAD_CAT_ID":52557,"ELEMENT_SET_NO":999,"REV_AT_EPOCH":21140,"BSTAR":-2.8406095e-5,"MEAN_MOTION_DOT":-7.4e-6,"MEAN_MOTION_DDOT":0},{"OBJECT_NAME":"FREGAT DEB","OBJECT_ID":"2011-037CX","EPOCH":"2026-03-09T22:22:15.719232","MEAN_MOTION":12.70252639,"ECCENTRICITY":0.12472984,"INCLINATION":51.4233,"RA_OF_ASC_NODE":4.0605,"ARG_OF_PERICENTER":90.8093,"MEAN_ANOMALY":283.5512,"EPHEMERIS_TYPE":0,"CLASSIFICATION_TYPE":"U","NORAD_CAT_ID":45878,"ELEMENT_SET_NO":999,"REV_AT_EPOCH":24233,"BSTAR":0.0072133856,"MEAN_MOTION_DOT":0.00053661,"MEAN_MOTION_DDOT":0}]
